{
  "norad_id": 47798,
  "name": "STARLINK-2379",
  "history": [
    {
      "epoch": "2026-03-28T10:41:44.352672Z",
      "apogee_km": 548.0573248408,
      "perigee_km": 546.3523056858821,
      "latitude_deg": 8.137099824711143e-06,
      "longitude_deg": 161.118812654942,
      "height_km": 548.1195119920791,
      "semi_major_axis_km": 6925.341815263341,
      "eccentricity": 0.0001231,
      "inclination_deg": 53.0554,
      "raan_deg": 147.4196,
      "arg_perigee_deg": 92.4882,
      "mean_anomaly_deg": 267.6248,
      "mean_motion_rev_day": 15.064022
    },
    {
      "epoch": "2026-03-29T08:59:16.952064Z",
      "apogee_km": 548.0139258859299,
      "perigee_km": 546.3638977341816,
      "latitude_deg": 4.5311802334704365e-05,
      "longitude_deg": -178.3521062401265,
      "height_km": 548.0865583290578,
      "semi_major_axis_km": 6925.325911810055,
      "eccentricity": 0.00011913,
      "inclination_deg": 53.0551,
      "raan_deg": 143.25,
      "arg_perigee_deg": 91.3851,
      "mean_anomaly_deg": 268.7275,
      "mean_motion_rev_day": 15.06407389
    }
  ]
}